DUPLEX                  
1 66906U 98067XS  26091.88512558  .00032412  00000+0  43265-3 0  9991
2 66906  51.6290 313.3003 0003086 220.5371 139.5391 15.57773370 18748
ISS OBJECT XT           
1 66907U 98067XT  26091.89197517  .00271653  00000+0  14895-2 0  9995
2 66907  51.6226 306.5524 0006749 231.8821 128.1571 15.78433810 18833
ISS OBJECT XU           
1 66908U 98067XU  26091.88747917  .00284033  00000+0  15333-2 0  9994
2 66908  51.6227 306.5178 0006970 231.5533 128.4842 15.78743702 18831
SILVERSAT               
1 66909U 98067XV  26092.01578416  .00422220  00000+0  16654-2 0  9996
2 66909  51.6185 304.3569 0008313 239.9802 120.0377 15.85122175 18877
ISS OBJECT XW           
1 66910U 98067XW  26091.96660866  .00224524  00000+0  13372-2 0  9993
2 66910  51.6211 306.2930 0007046 228.1429 131.8970 15.76710438 18840
ISS OBJECT XX           
1 66911U 98067XX  26091.87506797  .00647261  18197-3  17622-2 0  9995
2 66911  51.6164 303.3744 0010278 244.1070 115.8878 15.93473578 18861
ISS OBJECT XY           
1 66912U 98067XY  26092.31932015  .00153550  00000+0  12970-2 0  9996
2 66912  51.6260 307.1846 0004724 228.4788 131.5804 15.68746730 18852
KNACKSAT-2              
1 67683U 98067XZ  26092.02490752  .00046055  00000+0  70546-3 0  9992
2 67683  51.6312 315.7350 0010357 271.4198  88.5606 15.53816312  8413
CORAL                   
1 67684U 98067YA  26092.00940574  .00095906  00000+0  12221-2 0  9997
2 67684  51.6293 314.8808 0013294 261.1138  98.8349 15.58432095  8429
GXIBA-1                 
1 67685U 98067YB  26091.88479556  .00048495  00000+0  72618-3 0  9998
2 67685  51.6317 316.2995 0012295 267.6907  92.2676 15.54391194  8392
UITMSAT-2               
1 67686U 98067YC  26092.31730001  .00078647  00000+0  11234-2 0  9991
2 67686  51.6307 313.9404 0009338 243.0749 116.9288 15.55507435  8466
HMU-SAT2                
1 67687U 98067YD  26092.01899921  .00048045  00000+0  72719-3 0  9991
2 67687  51.6316 315.6984 0008907 244.0786 115.9287 15.54142799  8333
LEOPARD                 
1 67688U 98067YE  26092.00396077  .00054438  00000+0  79751-3 0  9991
2 67688  51.6310 315.5981 0009094 241.6191 118.3884 15.54979490  8331
CREW DRAGON 12          
1 67796U 26031A   26092.13346771  .00010892  00000+0  20755-3 0  9999
2 67796  51.6331 316.4579 0006239 262.1298  97.8982 15.48713693559932
PROGRESS-MS 33          
1 68319U 26058A   26092.13346771  .00010892  00000+0  20755-3 0  9990
2 68319  51.6331 316.4579 0006239 262.1298  97.8982 15.48713693  1251
